<?xml version="1.0" encoding="UTF-8"?>
<osm version="0.6" generator="Overpass API"><note>The data included in this document is from www.openstreetmap.org. The data is made available under ODbL.</note><meta osm_base="2016-07-19T06:27:02Z" areas="2016-07-16T22:28:02Z"/><node id="30868159" lat="52.5407543" lon="13.3227163"><tag k="historic" v="memorial"/><tag k="image" v="http://commons.wikimedia.org/wiki/File:Gedenkst._Pl%C3%B6tzensee_Gedenkmauer_%28Alter_Fritz%29.jpg"/><tag k="memorial" v="war_memorial"/><tag k="name" v="Gedenkstätte Plötzensee"/><tag k="tourism" v="attraction"/><tag k="website" v="http://www.gedenkstaette-ploetzensee.de/"/></node><node id="59954787" lat="52.5440315" lon="13.5635486"><tag k="addr:city" v="Berlin"/><tag k="addr:country" v="DE"/><tag k="addr:housenumber" v="4"/><tag k="addr:postcode" v="12685"/><tag k="addr:street" v="Hinter der Mühle"/><tag k="addr:suburb" v="Marzahn"/><tag k="building" v="yes"/><tag k="contact:addr" v="Müllerhaus, Alt-Marzahn 63, 12685 Berlin - Jürgen Wolf"/><tag k="contact:email" v="muehlenwolf@gmx.net"/><tag k="contact:fax" v="+49 30 5458995"/><tag k="contact:phone" v="+49 30 5458995"/><tag k="contact:phone:mobile" v="+49 176 28073054"/><tag k="contact:website" v="http://www.marzahner-muehle.de/"/><tag k="guided_tour" v="Mo-Fr 10:00-12:00,13:00-16:00;Sa,Su,PH off;Ari-Oct: Su 15:00-17:00"/><tag k="man_made" v="windmill"/><tag k="name" v="Bockwindmühle Marzahn"/><tag k="operator" v="Bezirksamt Marzahn-Hellerdorf und Mühlenverein Berlin-Marzahn e.V."/><tag k="source" v="Geoportal Berlin / Hauskoordinaten"/><tag k="tourism" v="attraction"/><tag k="wheelchair" v="no"/></node><node id="205066401" lat="52.5935492" lon="13.2649888"><tag k="circumference" v="6.65"/><tag k="denotation" v="natural_monument"/><tag k="genus" v="Quercus"/><tag k="genus:de" v="Eiche"/><tag k="genus:en" v="Oak"/><tag k="height" v="23"/><tag k="leaf_type" v="broadleaved"/><tag k="name" v="Dicke Marie"/><tag k="natural" v="tree"/><tag k="species" v="Quercus robur"/><tag k="species:de" v="Stieleiche"/><tag k="species:en" v="English Oak"/><tag k="tourism" v="attraction"/><tag k="website" v="http://www.ausflugsziele-berlin.info/berlin/die-dicke-marie-in-berlin-tegel/"/><tag k="wikipedia" v="de:Dicke Marie"/></node><node id="245981373" lat="52.5094982" lon="13.3765983"><tag k="name" v="Potsdamer Platz"/><tag k="tourism" v="attraction"/><tag k="wheelchair" v="yes"/></node><node id="270670095" lat="52.4562352" lon="13.2918817"><tag k="addr:city" v="Berlin"/><tag k="addr:country" v="DE"/><tag k="addr:housenumber" v="8"/><tag k="addr:postcode" v="14195"/><tag k="addr:street" v="Lansstraße"/><tag k="addr:suburb" v="Dahlem"/><tag k="contact:phone" v="+49302660"/><tag k="contact:website" v="www.smb.museum/"/><tag k="name" v="Museum Dahlem"/><tag k="tourism" v="attraction"/><tag k="wheelchair" v="yes"/><tag k="wikidata" v="Q469234"/><tag k="wikipedia" v="de:Museumszentrum Berlin-Dahlem"/></node><node id="288993338" lat="52.4446550" lon="13.1308030"><tag k="name" v="Landhausgarten Dr. Fränkel"/><tag k="note" v="17-AUG-08 15:06:04"/><tag k="tourism" v="attraction"/><tag k="wheelchair" v="limited"/></node><node id="331907859" lat="52.5379680" lon="13.4105052"><tag k="addr:city" v="Berlin"/><tag k="addr:country" v="DE"/><tag k="addr:housenumber" v="57-59"/><tag k="addr:postcode" v="10435"/><tag k="addr:street" v="Oderberger Straße"/><tag k="addr:suburb" v="Prenzlauer Berg"/><tag k="contact:phone" v="030 4494598"/><tag k="name" v="Stadtbad Oderberger Straße"/><tag k="tourism" v="attraction"/><tag k="website" v="http://www.stadtbad-oderberger.de"/><tag k="wheelchair" v="no"/></node><node id="332966065" lat="52.5525696" lon="13.3686067"><tag k="addr:city" v="Berlin"/><tag k="addr:country" v="DE"/><tag k="addr:housenumber" v="99"/><tag k="addr:postcode" v="13347"/><tag k="addr:street" v="Schulstraße"/><tag k="addr:suburb" v="Gesundbrunnen"/><tag k="contact:phone" v="+4930901845498"/><tag k="name" v="Jerusalem Bibliothek"/><tag k="tourism" v="attraction"/><tag k="website" v="http://www.berlin.de/ba-mitte/aktuell/presse/archiv/20070719.1215.82156.html"/></node><node id="334323644" lat="52.5689882" lon="13.3887412"><tag k="addr:city" v="Berlin"/><tag k="addr:country" v="DE"/><tag k="addr:housenumber" v="15-18"/><tag k="addr:postcode" v="13156"/><tag k="addr:street" v="Am Bürgerpark"/><tag k="leisure" v="playground"/><tag k="name" v="Kinderbauernhof Pinke-Panke"/><tag k="phone" v="030 47552593"/><tag k="tourism" v="attraction"/><tag k="website" v="http://www.kinderbauernhof-pinke-panke.de"/><tag k="wheelchair" v="limited"/></node><node id="343093984" lat="52.4519759" lon="13.2881424"><tag k="description" v="&quot;Berlin Brain&quot; by Norman Foster"/><tag k="name" v="Berlin Brain"/><tag k="tourism" v="attraction"/><tag k="website" v="http://www.fosterandpartners.com/projects/0980/default.aspx"/><tag k="wheelchair" v="yes"/></node><node id="370046203" lat="52.5537038" lon="13.3783880"><tag k="name" v="Pankemühle"/><tag k="tourism" v="attraction"/></node><node id="370046553" lat="52.5542753" lon="13.3785425"><tag k="name" v="Tresorfabrik Arnheim"/><tag k="tourism" v="attraction"/></node><node id="384790168" lat="52.5532806" lon="13.3786323"><tag k="name" v="Luisenbad"/><tag k="tourism" v="attraction"/></node><node id="417346627" lat="52.5075460" lon="13.3903610"><tag k="int_name" v="Checkpoint Charlie"/><tag k="name" v="Checkpoint Charlie"/><tag k="name:ja" v="チェックポイント・チャーリー"/><tag k="name:ko" v="체크포인트 찰리"/><tag k="name:ru" v="Чекпойнт Чарли"/><tag k="name:tr" v="Çarli Kontrol Noktası"/><tag k="name:zh" v="查理檢查哨"/><tag k="tourism" v="attraction"/><tag k="website" v="http://www.berlin.de/orte/sehenswuerdigkeiten/checkpoint-charlie/"/><tag k="wheelchair" v="yes"/><tag k="wikipedia" v="de:Checkpoint Charlie"/></node><node id="482838975" lat="52.4874449" lon="13.4690312"><tag k="historic" v="memorial"/><tag k="name" v="Sowjetisches Ehrenmal"/><tag k="name:en" v="Soviet war memorial"/><tag k="name:ru" v="памятник воину-освободителю"/><tag k="tourism" v="attraction"/><tag k="wheelchair" v="limited"/></node><node id="498844453" lat="52.5473519" lon="13.3848133"><tag k="name" v="Flakturm Humboldthain"/><tag k="name:de" v="Flakturm Humboldthain"/><tag k="name:en" v="Flak Towers at Humboldthain Park"/><tag k="name:es" v="La torre antiaérea Humboldthain"/><tag k="tourism" v="attraction"/><tag k="wheelchair" v="no"/></node><node id="505993251" lat="52.5150264" lon="13.5106371"><tag k="name" v="Gedenkstätte der Sozialisten"/><tag k="name:de" v="Gedenkstätte der Sozialisten"/><tag k="name:en" v="Memorial to the Socialists"/><tag k="tourism" v="attraction"/><tag k="website" v="http://www.sozialistenfriedhof.de"/></node><node id="558158766" lat="52.5404864" lon="13.4895185"><tag k="historic" v="memorial"/><tag k="memorial" v="war_memorial"/><tag k="name" v="Sowjetisches Ehrenmal"/><tag k="tourism" v="attraction"/></node><node id="585473092" lat="52.5135275" lon="13.4115189"><tag k="addr:city" v="Berlin"/><tag k="addr:country" v="DE"/><tag k="addr:postcode" v="10179"/><tag k="addr:street" v="Märkisches Ufer"/><tag k="addr:suburb" v="Mitte"/><tag k="ft_link" v="www.freietonne.de?edit=16812"/><tag k="name" v="Historischer Hafen Berlin"/><tag k="tourism" v="attraction"/><tag k="website" v="http://www.historischer-hafen-berlin.de/"/></node><node id="639131685" lat="52.4188074" lon="13.1718917"><tag k="historic" v="memorial"/><tag k="image" v="http://commons.wikimedia.org/wiki/File:Grabst%C3%A4tte_Bismarckstr_2-4_%28Wanns%29_Heinrich_von_Kleist_1.jpg"/><tag k="name" v="Kleistgrab"/><tag k="tourism" v="attraction"/><tag k="wheelchair" v="no"/></node><node id="693601955" lat="52.6624551" lon="13.4798721"><tag k="name" v="Heckrinder"/><tag k="tourism" v="attraction"/></node><node id="829832140" lat="52.5043718" lon="13.3383311"><tag k="amenity" v="fountain"/><tag k="artist_name" v="Bernard and Francois Baschet"/><tag k="name" v="Lotus-Brunnen"/><tag k="tourism" v="attraction"/><tag k="wheelchair" v="no"/></node><node id="849536846" lat="52.4388077" lon="13.4235666"><tag k="alt" v="NN=45"/><tag k="description" v="Landeshaupthöhenpunkt"/><tag k="ele" v="45"/><tag k="natural" v="peak"/><tag k="tourism" v="attraction"/></node><node id="870023141" lat="52.4321239" lon="13.1265190"><tag k="name" v="Die Fontäne"/><tag k="tourism" v="attraction"/></node><node id="1011897688" lat="52.5407369" lon="13.2495880"><tag k="addr:city" v="Berlin"/><tag k="addr:country" v="DE"/><tag k="addr:housenumber" v="18"/><tag k="addr:postcode" v="13629"/><tag k="addr:street" v="Paulsternstraße"/><tag k="addr:suburb" v="Siemensstadt"/><tag k="name" v="Old Texas Town"/><tag k="phone" v="030 20255910"/><tag k="tourism" v="attraction"/><tag k="website" v="http://www.old-texas-town.de"/><tag k="wheelchair" v="unknown"/></node><node id="1099544674" lat="52.5049951" lon="13.6143288"><tag k="historic" v="milestone"/><tag k="name" v="Meilenstein"/><tag k="tourism" v="attraction"/></node><node id="1246795904" lat="52.5418030" lon="13.2212888"><tag k="name" v="Residenz Avalon"/><tag k="operator" v="Avalon GmbH"/><tag k="shop" v="erotic"/><tag k="tourism" v="attraction"/></node><node id="1296612901" lat="52.5279805" lon="13.4267984"><tag k="addr:city" v="Berlin"/><tag k="addr:country" v="DE"/><tag k="addr:postcode" v="10249"/><tag k="addr:street" v="Am Friedrichshain/ Friedenstraße (im Volkspark Friedrichshain)"/><tag k="addr:suburb" v="Friedrichshain"/><tag k="contact:website" v="http://www.berlin.de/orte/sehenswuerdigkeiten/maerchenbrunnen"/><tag k="historic" v="memorial"/><tag k="name" v="Märchenbrunnen"/><tag k="tourism" v="attraction"/><tag k="wheelchair" v="limited"/><tag k="wikipedia" v="de:Märchenbrunnen im Volkspark Friedrichshain"/></node><node id="1385305692" lat="52.5769649" lon="13.4507626"><tag k="name" v="Graffiti"/><tag k="note" v="Ehem. Gelände VEB Tiefbau"/><tag k="tourism" v="attraction"/></node><node id="1609064712" lat="52.5953506" lon="13.2435433"><tag k="height" v="42.5"/><tag k="name" v="Lärche"/><tag k="name:botanical" v="Larix"/><tag k="natural" v="tree"/><tag k="tourism" v="attraction"/></node><node id="1734442784" lat="52.6053291" lon="13.3991708"><tag k="addr:city" v="Berlin"/><tag k="addr:housenumber" v="5"/><tag k="addr:postcode" v="13159"/><tag k="addr:street" v="Blankenfelder Chaussee"/><tag k="addr:suburb" v="Blankenfelde"/><tag k="name" v="Botanischer Volkspark Pankow"/><tag k="tourism" v="attraction"/><tag k="wheelchair" v="limited"/><tag k="wheelchair:description" v="befestigte und unbefestigte Wege, auch die unbefestigten Wege teilweise gut befahrbar"/><tag k="wikipedia" v="de:Botanische Anlage Blankenfelde"/></node><node id="1969213795" lat="52.4835234" lon="13.3206413"><tag k="name" v="Sonnenuhr"/><tag k="tourism" v="attraction"/><tag k="url" v="http://www.planetarium-berlin.de/pages/sundials/Suedwest.html"/></node><node id="2070784730" lat="52.5048232" lon="13.3352674"><tag k="alt_name" v="Kaiser-Wilhelm-Gedächtnis-kirche"/><tag k="name" v="Kaiser-Wilhelm-Gedächtniskirche"/><tag k="name:de" v="Kaiser-Wilhelm-Gedächtniskirche"/><tag k="name:en" v="Kaiser Wilhelm Memorial Church"/><tag k="opening_hours" v="Mo-Su 09:00-19:00"/><tag k="tourism" v="attraction"/><tag k="wikipedia" v="en:Kaiser Wilhelm Memorial Church"/></node><node id="2211152982" lat="52.5124731" lon="13.3854968"><tag k="addr:city" v="Berlin"/><tag k="addr:country" v="DE"/><tag k="addr:housenumber" v="53"/><tag k="addr:postcode" v="10117"/><tag k="addr:street" v="Mauerstraße"/><tag k="addr:suburb" v="Mitte"/><tag k="name" v="BMAS"/><tag k="tourism" v="attraction"/><tag k="wheelchair" v="yes"/></node><node id="2352067116" lat="52.5175357" lon="13.3527256"><tag k="addr:housenumber" v="1"/><tag k="addr:street" v="Spreeweg"/><tag k="description" v="Wohnsitz des Bundespräsidenten"/><tag k="name" v="Schloss Bellevue"/><tag k="opening_hours" v="24/7"/><tag k="tourism" v="attraction"/></node><node id="2533696976" lat="52.5216087" lon="13.5085923"><tag k="name" v="Klanghölzer"/><tag k="tourism" v="attraction"/></node><node id="2703829986" lat="52.5303108" lon="13.3186121"><tag k="addr:city" v="Berlin"/><tag k="addr:country" v="DE"/><tag k="addr:housenumber" v="36"/><tag k="addr:postcode" v="10553"/><tag k="addr:street" v="Wiebestraße"/><tag k="addr:suburb" v="Moabit"/><tag k="name" v="Classic Remise Berlin"/><tag k="tourism" v="attraction"/><tag k="wheelchair" v="yes"/></node><node id="2862216432" lat="52.5028889" lon="13.4041944"><tag k="coordinates" v="N 52°30'10.4&quot; E 13°24'15.1&quot;"/><tag k="name" v="Flächenschwerpunkt Berlin"/><tag k="name:en" v="geographical center of Berlin"/><tag k="tourism" v="attraction"/></node><node id="2917519074" lat="52.5141994" lon="13.4880687"><tag k="former:operator:wikipedia" v="de:Ministerium für Staatssicherheit"/><tag k="name" v="ehem. Ministerium für Staatssicherheit"/><tag k="name:de" v="ehem. Ministerium für Staatssicherheit"/><tag k="name:en" v="former headquarters of the East German secret service &quot;Stasi&quot;"/><tag k="name:pl" v="Ministerstwo Bezpieczeństwa Państwowego NRD"/><tag k="name:ru" v="Министерство государственной безопасности ГДР"/><tag k="name:uk" v="Штазі"/><tag k="name:zh" v="史塔西"/><tag k="tourism" v="attraction"/></node><node id="2966005919" lat="52.5085256" lon="13.3796834"><tag k="addr:city" v="Berlin"/><tag k="addr:country" v="DE"/><tag k="addr:housenumber" v="7"/><tag k="addr:postcode" v="10117"/><tag k="addr:street" v="Erna-Berger-Straße"/><tag k="addr:suburb" v="Mitte"/><tag k="description" v="Beobachtungsturm"/><tag k="height" v="6"/><tag k="heritage" v="4"/><tag k="heritage:operator" v="lda"/><tag k="historic" v="yes"/><tag k="image" v="http://commons.wikimedia.org/wiki/File:Berlin_Wall_Watch-Tower_Typ_BT-11_2_apel.JPG"/><tag k="man_made" v="tower"/><tag k="name" v="Wachturm"/><tag k="name:en" v="Berlin Wall Watchtower"/><tag k="name:fr" v="Mirador du mur de Berlin"/><tag k="old_name" v="Berliner Mauer Grenzwachturm"/><tag k="ref" v="BT-6"/><tag k="start_date" v="1966"/><tag k="tourism" v="attraction"/><tag k="tower:type" v="watchtower"/><tag k="website" v="http://www.berlinwallexpo.de/"/></node><node id="3105395340" lat="52.5214887" lon="13.4866893"><tag k="addr:city" v="Berlin"/><tag k="addr:country" v="DE"/><tag k="addr:housenumber" v="64-66"/><tag k="addr:postcode" v="10365"/><tag k="addr:street" v="Ruschestraße"/><tag k="addr:suburb" v="Lichtenberg"/><tag k="contact:email" v="info@the-room-berlin.com"/><tag k="contact:website" v="http://www.the-room-berlin.com"/><tag k="name" v="THE ROOM - Live Escape Game Berlin"/><tag k="tourism" v="attraction"/></node><node id="4121484169" lat="52.5413928" lon="13.2129046"><tag k="name" v="Zitadelle Spandau"/><tag k="tourism" v="attraction"/></node><node id="4121801694" lat="52.5188055" lon="13.3648485"><tag k="name" v="Haus der Kulturen der Welt"/><tag k="toilets:wheelchair" v="yes"/><tag k="tourism" v="attraction"/><tag k="wheelchair" v="yes"/></node><node id="4161683990" lat="52.5243147" lon="13.4023187"><tag k="name" v="Death Chicken Alley"/><tag k="tourism" v="attraction"/></node><node id="4161715190" lat="52.4997310" lon="13.4229686"><tag k="name" v="Cosmonaut"/><tag k="tourism" v="attraction"/></node><node id="4214959522" lat="52.5137579" lon="13.4106915"><tag k="addr:street" v="Inselbrücke"/><tag k="email" v="hafenmeister@historischer-hafen-berlin.de"/><tag k="name" v="Anlegestelle Historischer Hafen Berlin"/><tag k="tourism" v="attraction"/><tag k="website" v="http://www.historischer-hafen-berlin.de/anlegesteg.html"/></node><node id="4214977994" lat="52.5004716" lon="13.4517933"><tag k="name" v="Lastkahn Agnes"/><tag k="tourism" v="attraction"/></node><node id="4215048703" lat="52.4976092" lon="13.4557973"><tag k="addr:street" v="Uferpromenade"/><tag k="name" v="Schiffswrack Dr. Ingrid Wengler"/><tag k="tourism" v="attraction"/></node><node id="4227856090" lat="52.5059802" lon="13.4378908"><tag k="name" v="East Side Gallery"/><tag k="tourism" v="attraction"/></node><node id="4227858189" lat="52.5216659" lon="13.3950332"><tag k="name" v="Museum Island"/><tag k="tourism" v="attraction"/></node><node id="4233899492" lat="52.5165017" lon="13.3797552"><tag k="addr:street" v="Unter den Linden"/><tag k="name" v="Start Point. Free Walking tour"/><tag k="tourism" v="attraction"/></node><node id="4293852389" lat="52.5458963" lon="13.4199209"><tag k="name" v="berlin simone"/><tag k="tourism" v="attraction"/></node></osm>
